HULIANWANG DIGUI-113    
1 66923U 25285J   26062.78294446 -.00000208  00000+0 -18133-3 0  9998
2 66923  50.0097 163.6982 0000047 332.8295  27.2574 13.29331356 12047
HULIANWANG DIGUI-114    
1 66953U 25287A   26062.75230918  .00000061  00000+0  10802-3 0  9994
2 66953  86.4977 318.0151 0001980  81.1424 278.9934 13.24415519 11389
HULIANWANG DIGUI-115    
1 66954U 25287B   26062.74473721  .00000084  00000+0  16098-3 0  9993
2 66954  86.4993 318.0264 0002057  80.7037 279.4329 13.24415635 11387
HULIANWANG DIGUI-116    
1 66955U 25287C   26062.81273860  .00000098  00000+0  19440-3 0  9993
2 66955  86.4932 317.9410 0002057  80.6235 279.5132 13.24415716 11395
HULIANWANG DIGUI-117    
1 66956U 25287D   26062.80522157  .00000099  00000+0  19762-3 0  9997
2 66956  86.4993 317.9943 0001371  22.8183 337.3012 13.24413811 11396
HULIANWANG DIGUI-118    
1 66957U 25287E   26062.79765192  .00000095  00000+0  18707-3 0  9998
2 66957  86.4969 317.9685 0002042  80.5896 279.5469 13.24415085 11399
HULIANWANG DIGUI-119    
1 67059U 25295A   26062.07289615 -.00000061  00000+0  10846-3 0  9993
2 67059  50.0099  47.5635 0000609 106.8761 253.2187 13.51029834 11361
HULIANWANG DIGUI-120    
1 67060U 25295B   26062.79994700 -.00000062  00000+0  10824-3 0  9999
2 67060  50.0053  44.7690 0001090 322.3204  37.7601 13.50760701 11466
HULIANWANG DIGUI-121    
1 67061U 25295C   26062.06681519 -.00000061  00000+0  10909-3 0  9994
2 67061  49.9999  47.5304 0001948 282.1047  77.9616 13.51357169 11368
HULIANWANG DIGUI-122    
1 67062U 25295D   26062.71915299 -.00000063  00000+0  10638-3 0  9993
2 67062  50.0007  45.0158 0001835 118.3707 241.7359 13.51053159 11457
HULIANWANG DIGUI-123    
1 67063U 25295E   26062.19420728 -.00000042  00000+0  13716-3 0  9991
2 67063  50.0058  46.9026 0000742 273.8979  86.1818 13.51163893 11382
HULIANWANG DIGUI-124    
1 67064U 25295F   26062.41024627 -.00000059  00000+0  11190-3 0  9997
2 67064  49.9984  46.0039 0000886  17.4900 342.6012 13.51154958 11410
HULIANWANG DIGUI-125    
1 67065U 25295G   26062.47765786 -.00000060  00000+0  10945-3 0  9991
2 67065  49.9862  45.6904 0003653  57.5555 302.5680 13.51198599 11424
HULIANWANG DIGUI-126    
1 67066U 25295H   26062.32247343 -.00000080  00000+0  79664-4 0  9996
2 67066  49.9966  46.1982 0001436  46.9301 313.1700 13.51245278 11406
HULIANWANG DIGUI-127    
1 67067U 25295J   26062.82970722 -.00000319  00000+0 -28853-3 0  9995
2 67067  50.0015  44.2319 0000696  23.4353 336.6560 13.51069580 11473
HULIANWANG DIGUI-128    
1 67236U 25311A   26062.34722739 -.00000060  00000+0  12954-3 0  9999
2 67236  50.0101 135.2234 0002353 353.5774   6.5071 13.35891953  9263
